[{"OBJECT_NAME":"STARLINK-4395","OBJECT_ID":"2022-084L","EPOCH":"2026-03-09T17:25:46.160544","MEAN_MOTION":15.05715066,"ECCENTRICITY":0.00013965,"INCLINATION":97.6045,"RA_OF_ASC_NODE":131.2451,"ARG_OF_PERICENTER":58.4465,"MEAN_ANOMALY":301.6898,"EPHEMERIS_TYPE":0,"CLASSIFICATION_TYPE":"U","NORAD_CAT_ID":53199,"ELEMENT_SET_NO":999,"REV_AT_EPOCH":19938,"BSTAR":-0.0012973879,"MEAN_MOTION_DOT":-0.00018764,"MEAN_MOTION_DDOT":0},{"OBJECT_NAME":"IRIDIUM 33 DEB","OBJECT_ID":"1997-051QE","EPOCH":"2026-03-07T09:35:18.798432","MEAN_MOTION":15.07266806,"ECCENTRICITY":0.0013423,"INCLINATION":86.3519,"RA_OF_ASC_NODE":312.8742,"ARG_OF_PERICENTER":171.2899,"MEAN_ANOMALY":188.8573,"EPHEMERIS_TYPE":0,"CLASSIFICATION_TYPE":"U","NORAD_CAT_ID":35484,"ELEMENT_SET_NO":999,"REV_AT_EPOCH":63287,"BSTAR":0.0040001,"MEAN_MOTION_DOT":0.00060878,"MEAN_MOTION_DDOT":0}]
